{
  "type": "FeatureCollection",
  "features": [
    {
      "type": "Feature",
      "geometry": { "type": "Point", "coordinates": [-76.6205, 39.3299] },
      "properties": {
        "name": "Johns Hopkins University",
        "rd_spending": 3180000000,
        "research_field": "Medical/Health",
        "year": 2024,
        "city": "Baltimore",
        "state": "MD"
      }
    },
    {
      "type": "Feature",
      "geometry": { "type": "Point", "coordinates": [-76.6253, 39.2904] },
      "properties": {
        "name": "University of Maryland, Baltimore",
        "rd_spending": 680000000,
        "research_field": "Medical/Health",
        "year": 2024,
        "city": "Baltimore",
        "state": "MD"
      }
    },
    {
      "type": "Feature",
      "geometry": { "type": "Point", "coordinates": [-76.6090, 39.3382] },
      "properties": {
        "name": "Morgan State University",
        "rd_spending": 45000000,
        "research_field": "Engineering/CS",
        "year": 2024,
        "city": "Baltimore",
        "state": "MD"
      }
    },
    {
      "type": "Feature",
      "geometry": { "type": "Point", "coordinates": [-76.7113, 39.2550] },
      "properties": {
        "name": "University of Maryland, Baltimore County",
        "rd_spending": 84000000,
        "research_field": "Engineering/CS",
        "year": 2024,
        "city": "Baltimore",
        "state": "MD"
      }
    },
    {
      "type": "Feature",
      "geometry": { "type": "Point", "coordinates": [-76.6205, 39.3299] },
      "properties": {
        "name": "Johns Hopkins University",
        "rd_spending": 2950000000,
        "research_field": "Medical/Health",
        "year": 2023,
        "city": "Baltimore",
        "state": "MD"
      }
    },
    {
      "type": "Feature",
      "geometry": { "type": "Point", "coordinates": [-76.6253, 39.2904] },
      "properties": {
        "name": "University of Maryland, Baltimore",
        "rd_spending": 645000000,
        "research_field": "Medical/Health",
        "year": 2023,
        "city": "Baltimore",
        "state": "MD"
      }
    }
  ]
}
