{
  "type": "FeatureCollection",
  "features": [
    {
      "type": "Feature",
      "geometry": {
        "type": "Polygon",
        "coordinates": [[
          [-79.487651, 39.721814],
          [-75.788989, 39.721814],
          [-75.049180, 38.451752],
          [-75.245968, 38.027212],
          [-75.943116, 37.954220],
          [-76.230858, 37.961391],
          [-76.314465, 38.184049],
          [-76.512215, 38.353058],
          [-76.652956, 38.677518],
          [-76.999878, 38.831775],
          [-77.040522, 38.991698],
          [-77.327857, 39.077400],
          [-77.719021, 39.331476],
          [-77.834336, 39.566373],
          [-78.062521, 39.547278],
          [-78.380691, 39.466262],
          [-79.066664, 39.460456],
          [-79.487651, 39.721814]
        ]]
      },
      "properties": {
        "name": "Maryland",
        "state": "MD",
        "dynamism_score": 58,
        "year": 2024
      }
    },
    {
      "type": "Feature",
      "geometry": {
        "type": "Polygon",
        "coordinates": [[
          [-79.762152, 39.721814],
          [-75.788989, 39.721814],
          [-74.974830, 39.799949],
          [-74.694908, 39.461538],
          [-75.420692, 39.797447],
          [-75.692581, 39.832290],
          [-75.788989, 39.721814],
          [-79.487651, 39.721814],
          [-79.762152, 39.721814]
        ]]
      },
      "properties": {
        "name": "Pennsylvania",
        "state": "PA",
        "dynamism_score": 52,
        "year": 2024
      }
    }
  ]
}
